{
    "links": {
        "self": "http://www.neowsapp.com/rest/v1/neo/54016838?api_key=iIulBulltgU6a56xZRHN4H3l9WmuAYTsLGpBGhQ2"
    },
    "id": "54016838",
    "neo_reference_id": "54016838",
    "name": "(2020 HA9)",
    "designation": "2020 HA9",
    "nasa_jpl_url": "http://ssd.jpl.nasa.gov/sbdb.cgi?sstr=54016838",
    "absolute_magnitude_h": 24.975,
    "estimated_diameter": {
        "kilometers": {
            "estimated_diameter_min": 0.0268877819,
            "estimated_diameter_max": 0.0601229081
        },
        "meters": {
            "estimated_diameter_min": 26.8877818942,
            "estimated_diameter_max": 60.1229080797
        },
        "miles": {
            "estimated_diameter_min": 0.0167072879,
            "estimated_diameter_max": 0.0373586315
        },
        "feet": {
            "estimated_diameter_min": 88.2145103499,
            "estimated_diameter_max": 197.2536417441
        }
    },
    "is_potentially_hazardous_asteroid": false,
    "close_approach_data": [
        {
            "close_approach_date": "2020-05-15",
            "close_approach_date_full": "2020-May-15 22:46",
            "epoch_date_close_approach": 1589582760000,
            "relative_velocity": {
                "kilometers_per_second": "15.7648145773",
                "kilometers_per_hour": "56753.3324781176",
                "miles_per_hour": "35264.3137278615"
            },
            "miss_distance": {
                "astronomical": "0.0466469702",
                "lunar": "18.1456714078",
                "kilometers": "6978287.383873474",
                "miles": "4336106.7123989812"
            },
            "orbiting_body": "Earth"
        },
        {
            "close_approach_date": "2020-06-15",
            "close_approach_date_full": "2020-Jun-15 08:43",
            "epoch_date_close_approach": 1592210580000,
            "relative_velocity": {
                "kilometers_per_second": "13.1549262352",
                "kilometers_per_hour": "47357.7344468348",
                "miles_per_hour": "29426.2544955902"
            },
            "miss_distance": {
                "astronomical": "0.1238540495",
                "lunar": "48.1792252555",
                "kilometers": "18528301.996074565",
                "miles": "11512952.997636397"
            },
            "orbiting_body": "Venus"
        }
    ],
    "orbital_data": {
        "orbit_id": "4",
        "orbit_determination_date": "2020-05-14 06:38:18",
        "first_observation_date": "2020-04-27",
        "last_observation_date": "2020-05-14",
        "data_arc_in_days": 17,
        "observations_used": 26,
        "orbit_uncertainty": "8",
        "minimum_orbit_intersection": ".0374712",
        "jupiter_tisserand_invariant": "3.706",
        "epoch_osculation": "2458968.5",
        "eccentricity": ".6021210774170422",
        "semi_major_axis": "1.891774435883894",
        "inclination": "7.078200897080072",
        "ascending_node_longitude": "216.3474807137055",
        "orbital_period": "950.3913075046808",
        "perihelion_distance": ".7526971743194665",
        "perihelion_argument": "89.25337940127271",
        "aphelion_distance": "3.030851697448322",
        "perihelion_time": "2459032.009115819833",
        "mean_anomaly": "335.9432967088377",
        "mean_motion": ".3787913432680748",
        "equinox": "J2000",
        "orbit_class": {
            "orbit_class_type": "APO",
            "orbit_class_description": "Near-Earth asteroid orbits which cross the Earth’s orbit similar to that of 1862 Apollo",
            "orbit_class_range": "a (semi-major axis) > 1.0 AU; q (perihelion) < 1.017 AU"
        }
    },
    "is_sentry_object": false
}